[{"OBJECT_NAME":"ASTROCAST-0402","OBJECT_ID":"2023-001DE","EPOCH":"2026-03-09T19:21:31.190400","MEAN_MOTION":15.26734153,"ECCENTRICITY":0.00042092,"INCLINATION":97.5556,"RA_OF_ASC_NODE":160.6821,"ARG_OF_PERICENTER":216.6984,"MEAN_ANOMALY":143.3966,"EPHEMERIS_TYPE":0,"CLASSIFICATION_TYPE":"U","NORAD_CAT_ID":55109,"ELEMENT_SET_NO":999,"REV_AT_EPOCH":12936,"BSTAR":0.00041835119,"MEAN_MOTION_DOT":0.0001093,"MEAN_MOTION_DDOT":0},{"OBJECT_NAME":"STARLINK-31667","OBJECT_ID":"2024-080J","EPOCH":"2026-03-09T06:29:42.303264","MEAN_MOTION":15.27556774,"ECCENTRICITY":0.00010985,"INCLINATION":42.9959,"RA_OF_ASC_NODE":36.3757,"ARG_OF_PERICENTER":245.9723,"MEAN_ANOMALY":114.1014,"EPHEMERIS_TYPE":0,"CLASSIFICATION_TYPE":"U","NORAD_CAT_ID":59609,"ELEMENT_SET_NO":999,"REV_AT_EPOCH":10451,"BSTAR":0.00015089145,"MEAN_MOTION_DOT":3.89e-5,"MEAN_MOTION_DDOT":0}]
